FACSAT-1                
1 43721U 18096C   22174.83404073  .00019588  00000+0  54944-3 0  9995
2 43721  97.3507 254.6465 0013876  38.1064 100.7247 15.36519728198959
CENTAURI-2              
1 43722U 18096D   22174.46880480  .00021342  00000+0  53795-3 0  9999
2 43722  97.3556 256.2858 0012418  35.0211 325.1850 15.39821928199000
INNOSAT-2               
1 43738U 18096V   22174.81407623  .00051189  00000+0  91081-3 0  9991
2 43738  97.3655 263.7839 0012073  21.1651  73.4128 15.49912029199498
SIRION PATHFINDER-2     
1 43759U 18099B   22174.85940850  .00001733  00000+0  15780-3 0  9997
2 43759  97.6200 241.4608 0012732 235.3475 124.6547 14.96379196194001
CORVUS BC4              
1 43767U 18099K   22174.48177527  .00001371  00000+0  12791-3 0  9995
2 43767  97.6161 239.5920 0010010 243.4245 116.5950 14.95778742193874
MOVE-II                 
1 43780U 18099Y   22174.42897309  .00002982  00000+0  25867-3 0  9998
2 43780  97.6245 241.7601 0011515 248.3239 111.6758 14.97767633193951
SPACEBEE-7              
1 43816U 18099BL  22174.14891624  .00003496  00000+0  30319-3 0  9990
2 43816  97.6274 242.2140 0011344 228.8072 131.2173 14.97672877193500
SPACEBEE-5              
1 43817U 18099BM  22174.46501685  .00007898  00000+0  61864-3 0  9990
2 43817  97.6381 245.4193 0006819 245.0601 114.9915 15.01253533193673
SPACEBEE-6              
1 43818U 18099BN  22174.43534666  .00003748  00000+0  31621-3 0  9991
2 43818  97.6303 243.3730 0011653 229.8098 130.2105 14.98698916193736
SHIELDS 1               
1 43850U 18104B   22174.41623194  .00002859  00000+0  11760-3 0  9991
2 43850  85.0293  48.2635 0011942 238.7453 121.2620 15.23619603195416
STF-1                   
1 43852U 18104D   22174.62763787  .00007051  00000+0  26588-3 0  9992
2 43852  85.0318  48.4234 0010352 252.3720 107.6395 15.26812292195482
ZACUBE-2                
1 43907U 18111AH  22174.87351734  .00008844  00000+0  32554-3 0  9994
2 43907  97.1901  60.9430 0021820  60.0931  70.1707 15.27853252194271
LUME 1                  
1 43908U 18111AJ  22174.59113220  .00008779  00000+0  29831-3 0  9991
2 43908  97.1918  62.2056 0020161  56.0754 304.2401 15.30500711194336
AOBA VELOX-IV           
1 43940U 19003J   22174.34469999  .00030197  00000+0  80972-3 0  9990
2 43940  97.1259 210.0182 0019748 122.1562 238.1603 15.37725744191039
MOVE-IIB                
1 44398U 19038N   22174.55209092  .00011755  00000+0  56585-3 0  9997
2 44398  97.6286 143.9533 0023659 104.8267 255.5586 15.18677151163962
SONATE                  
1 44400U 19038Q   22174.60080770  .00004432  00000+0  24139-3 0  9991
2 44400  97.6394 143.1305 0025244 109.6249 250.7703 15.14679821163869
LUCKY-7                 
1 44406U 19038W   22174.46355495  .00005223  00000+0  27663-3 0  9994
2 44406  97.6377 143.5018 0024561 108.5515 251.8388 15.15596151163873
BEESAT 9                
1 44412U 19038AC  22174.45412458  .00007150  00000+0  36371-3 0  9990
2 44412  97.6347 143.7827 0022296 111.7199 248.6410 15.16932720163602
JAISAT-1                
1 44419U 19038F   22174.37203519  .00007007  00000+0  35191-3 0  9994
2 44419  97.6354 144.5422 0021309 109.2702 251.0839 15.17407995163956
DUCHIFAT-3              
1 44854U 19089C   22174.82574338  .00003638  00000+0  28447-3 0  9995
2 44854  36.9660  62.5665 0009750 276.7347  83.2277 15.01123366138890
EYESAT-NANO             
1 44877U 19092E   22174.49406227  .00008308  00000+0  35960-3 0  9995
2 44877  97.4640 358.8192 0010554 342.4248  17.6621 15.22631269139283
ORBITAL FACTORY 2 (OF-2)
1 45113U 19071C   22174.83402042  .00019199  00000+0  39755-3 0  9991
2 45113  51.6398  27.9670 0010012 190.8440 169.2333 15.45735054134362
M2 PATHFINDER           
1 45727U 20037E   22174.45535634  .00001855  00000+0  18802-3 0  9998
2 45727  97.7347 349.8070 0013069  22.4183 337.7591 14.92044733107723
NETSAT-4                
1 46504U 20068U   22174.63222262  .00003266  00000+0  24404-3 0  9999
2 46504  97.7253 114.4089 0010729 310.6982  49.3309 15.03474354 94972
NETSAT-3                
1 46505U 20068V   22174.58119552  .00003902  00000+0  29101-3 0  9997
2 46505  97.7234 114.2791 0010689 319.7254  40.3153 15.03421786 94976
NETSAT-1                
1 46506U 20068W   22174.46453840  .00002108  00000+0  15970-3 0  9992
2 46506  97.7260 114.0981 0009719 336.4369  23.6399 15.03351617 94959
NETSAT-2                
1 46507U 20068X   22174.54068669  .00002528  00000+0  19063-3 0  9996
2 46507  97.7254 114.1653 0008497 345.6758  14.4178 15.03341543 94912
SPOC                    
1 46921U 98067RR  22174.46466455  .03071640  12060-4  87748-3 0  9999
2 46921  51.6168 253.7633 0010777 326.3417  33.6918 16.26625966 92974
NEUTRON-1               
1 46923U 98067RT  22174.64002943  .02538661  12011-4  84664-3 0  9999
2 46923  51.6179 253.4568 0012255 338.6681  21.3827 16.24803563 93034
SAI-1 NANOCONNECT-2     
1 47701U 21015C   22174.46275094  .00009887  00000+0  36991-3 0  9993
2 47701  97.4230 251.3620 0012616  77.5750 282.6901 15.27443496 73139
TSURU                   
1 47927U 98067SD  22174.65766563  .00581102  16698-3  92556-3 0  9999
2 47927  51.6264 267.9493 0012898 334.7466  25.2913 16.02944318 72791
MAYA-2                  
1 47929U 98067SF  22174.23671839  .00560930  15182-3  99328-3 0  9993
2 47929  51.6260 270.3939 0012475 332.7940  27.2415 16.01164173 72687
GUARANISAT-1            
1 47931U 98067SH  22174.51620929  .00608190  18300-3  96603-3 0  9990
2 47931  51.6245 268.5120 0012951 335.2031  24.8356 16.02988723 72775
BEESAT-6                
1 47957U 21022AB  22174.69992236  .00006516  00000+0  41750-3 0  9998
2 47957  97.5281  74.1829 0021732 121.7737 291.6673 15.08675135 68740
SMOG-1                  
1 47964U 21022AJ  22173.94040188  .00007156  00000+0  44108-3 0  9994
2 47964  97.5304  74.4749 0020128 114.7397 245.5930 15.10088969 67716
MMSATS-1                
1 47976U 98067SJ  22174.60666730  .00024121  00000+0  30547-3 0  9994
2 47976  51.6418 294.0312 0001158  28.2154 331.8899 15.59346400 71228
BCCSAT-1                
1 48041U 21022AK  22174.45910205  .00005398  00000+0  34191-3 0  9991
2 48041  97.5314  74.6003 0016931 110.8021 249.5023 15.09257538 67745
BEESAT-5                
1 48083U 21022AM  22173.96317307  .00006845  00000+0  43668-3 0  9993
2 48083  97.5237  73.4584 0021394 123.9284 291.3121 15.08821116 67765
BEESAT-7                
1 48084U 21022AN  22174.57483861  .00006561  00000+0  41971-3 0  9991
2 48084  97.5258  74.0667 0021638 121.4464 357.5059 15.08734260 67445
BEESAT-8                
1 48085U 21022AP  22173.99097222  .00006917  00000+0  44329-3 0  9994
2 48085  97.5252  73.4923 0021234 122.6706  63.5348 15.08652897 67914
RAMSAT                  
1 48850U 98067SL  22174.83342905  .00066116  00000+0  50714-3 0  9994
2 48850  51.6367 285.0307 0002037 352.7211   7.3757 15.71453062 58335
BD-28                   
1 48867U 98067SN  22174.04230846  .00107912  00000+0  68839-3 0  9992
2 48867  51.6303 286.4364 0003244 313.2395  46.8334 15.75552553 56995
BINAR-1                 
1 49272U 98067SR  22174.59510884  .00080072  00000+0  61332-3 0  9994
2 49272  51.6345 290.1602 0006372 319.8999  40.1528 15.71387616 40634
MAYA-3                  
1 49273U 98067SS  22174.63497693  .00192141  00000+0  87150-3 0  9999
2 49273  51.6300 285.1292 0009737 323.8969  36.1376 15.82753746 40702
MAYA-4                  
1 49274U 98067ST  22174.47358670  .00185705  00000+0  88278-3 0  9993
2 49274  51.6327 286.3084 0009058 320.8113  39.2232 15.81776788 40679
CUAVA-1                 
1 49275U 98067SU  22174.83321848  .00132926  00000+0  80856-3 0  9992
2 49275  51.6339 286.2769 0006558 322.7057 129.4111 15.76523876 40650
